{
  "type": "FeatureCollection",
  "features": [
    {
      "type": "Feature",
      "properties": {
        "norad_id": 66341,
        "name": "STARLINK-35522",
        "group": "last-30-days",
        "lat": 41.679922497111676,
        "lon": 115.06211833871635,
        "alt_km": 408.95529402116335,
        "timestamp": "2025-12-02T21:34:00.040756+00:00",
        "meta_object_name": "STARLINK-35522",
        "meta_object_id": "2025-253Y",
        "meta_epoch": "2025-12-02T05:46:36.245856",
        "meta_mean_motion": 15.50639914,
        "meta_eccentricity": 0.0001588,
        "meta_inclination": 43.0002,
        "meta_ra_of_asc_node": 46.079,
        "meta_arg_of_pericenter": 262.4563,
        "meta_mean_anomaly": 97.6117,
        "meta_ephemeris_type": 0,
        "meta_classification_type": "U",
        "meta_norad_cat_id": 66341,
        "meta_element_set_no": 999,
        "meta_rev_at_epoch": 530,
        "meta_bstar": 0.0014366,
        "meta_mean_motion_dot": 0.00085041,
        "meta_mean_motion_ddot": 0,
        "tle_line1": "1 66341U 25253Y   25336.24069729  .00085041  00000+0  14366-2 0  9994",
        "tle_line2": "2 66341  43.0002  46.0790 0001588 262.4563  97.6117 15.50639914  5309"
      },
      "geometry": {
        "type": "Point",
        "coordinates": [
          115.06211833871635,
          41.679922497111676
        ]
      }
    },
    {
      "type": "Feature",
      "properties": {
        "norad_id": 66342,
        "name": "STARLINK-35535",
        "group": "last-30-days",
        "lat": 28.037630040808402,
        "lon": 77.16429215481541,
        "alt_km": 440.071764549979,
        "timestamp": "2025-12-02T21:34:00.040767+00:00",
        "meta_object_name": "STARLINK-35535",
        "meta_object_id": "2025-253Z",
        "meta_epoch": "2025-12-02T12:00:05.998752",
        "meta_mean_motion": 15.4064157,
        "meta_eccentricity": 0.0001245,
        "meta_inclination": 43.0005,
        "meta_ra_of_asc_node": 44.6073,
        "meta_arg_of_pericenter": 280.9981,
        "meta_mean_anomaly": 69.5447,
        "meta_ephemeris_type": 0,
        "meta_classification_type": "U",
        "meta_norad_cat_id": 66342,
        "meta_element_set_no": 999,
        "meta_rev_at_epoch": 528,
        "meta_bstar": 0.0011762,
        "meta_mean_motion_dot": 0.0004905,
        "meta_mean_motion_ddot": 0,
        "tle_line1": "1 66342U 25253Z   25336.50006943  .00049050  00000+0  11762-2 0  9990",
        "tle_line2": "2 66342  43.0005  44.6073 0001245 280.9981  69.5447 15.40641570  5281"
      },
      "geometry": {
        "type": "Point",
        "coordinates": [
          77.16429215481541,
          28.037630040808402
        ]
      }
    },
    {
      "type": "Feature",
      "properties": {
        "norad_id": 66343,
        "name": "STARLINK-35467",
        "group": "last-30-days",
        "lat": 4.24524024338371,
        "lon": 46.96965842815126,
        "alt_km": 443.32384091488984,
        "timestamp": "2025-12-02T21:34:00.040777+00:00",
        "meta_object_name": "STARLINK-35467",
        "meta_object_id": "2025-253AA",
        "meta_epoch": "2025-12-02T12:00:05.998752",
        "meta_mean_motion": 15.40639265,
        "meta_eccentricity": 0.0001153,
        "meta_inclination": 43.0007,
        "meta_ra_of_asc_node": 44.6979,
        "meta_arg_of_pericenter": 272.0829,
        "meta_mean_anomaly": 41.1303,
        "meta_ephemeris_type": 0,
        "meta_classification_type": "U",
        "meta_norad_cat_id": 66343,
        "meta_element_set_no": 999,
        "meta_rev_at_epoch": 528,
        "meta_bstar": 0.0012676,
        "meta_mean_motion_dot": 0.00052908,
        "meta_mean_motion_ddot": 0,
        "tle_line1": "1 66343U 25253AA  25336.50006943  .00052908  00000+0  12676-2 0  9992",
        "tle_line2": "2 66343  43.0007  44.6979 0001153 272.0829  41.1303 15.40639265  5285"
      },
      "geometry": {
        "type": "Point",
        "coordinates": [
          46.96965842815126,
          4.24524024338371
        ]
      }
    },
    {
      "type": "Feature",
      "properties": {
        "norad_id": 66344,
        "name": "STARLINK-35511",
        "group": "last-30-days",
        "lat": 41.79785185911639,
        "lon": 148.54622819841254,
        "alt_km": 408.5768953929137,
        "timestamp": "2025-12-02T21:34:00.040787+00:00",
        "meta_object_name": "STARLINK-35511",
        "meta_object_id": "2025-253AB",
        "meta_epoch": "2025-12-02T11:51:12.786336",
        "meta_mean_motion": 15.50673828,
        "meta_eccentricity": 0.0001213,
        "meta_inclination": 43.0006,
        "meta_ra_of_asc_node": 44.5324,
        "meta_arg_of_pericenter": 250.7153,
        "meta_mean_anomaly": 109.3576,
        "meta_ephemeris_type": 0,
        "meta_classification_type": "U",
        "meta_norad_cat_id": 66344,
        "meta_element_set_no": 999,
        "meta_rev_at_epoch": 534,
        "meta_bstar": 0.0018155,
        "meta_mean_motion_dot": 0.00108013,
        "meta_mean_motion_ddot": 0,
        "tle_line1": "1 66344U 25253AB  25336.49389799  .00108013  00000+0  18155-2 0  9991",
        "tle_line2": "2 66344  43.0006  44.5324 0001213 250.7153 109.3576 15.50673828  5348"
      },
      "geometry": {
        "type": "Point",
        "coordinates": [
          148.54622819841254,
          41.79785185911639
        ]
      }
    },
    {
      "type": "Feature",
      "properties": {
        "norad_id": 66345,
        "name": "STARLINK-35440",
        "group": "last-30-days",
        "lat": 42.43520543131671,
        "lon": 143.33065754545729,
        "alt_km": 408.6685810448553,
        "timestamp": "2025-12-02T21:34:00.040798+00:00",
        "meta_object_name": "STARLINK-35440",
        "meta_object_id": "2025-253AC",
        "meta_epoch": "2025-12-02T11:52:12.037728",
        "meta_mean_motion": 15.5060579,
        "meta_eccentricity": 0.0001101,
        "meta_inclination": 43.0007,
        "meta_ra_of_asc_node": 44.5357,
        "meta_arg_of_pericenter": 267.7364,
        "meta_mean_anomaly": 92.3371,
        "meta_ephemeris_type": 0,
        "meta_classification_type": "U",
        "meta_norad_cat_id": 66345,
        "meta_element_set_no": 999,
        "meta_rev_at_epoch": 534,
        "meta_bstar": 0.0020059,
        "meta_mean_motion_dot": 0.00119257,
        "meta_mean_motion_ddot": 0,
        "tle_line1": "1 66345U 25253AC  25336.49458377  .00119257  00000+0  20059-2 0  9999",
        "tle_line2": "2 66345  43.0007  44.5357 0001101 267.7364  92.3371 15.50605790  5341"
      },
      "geometry": {
        "type": "Point",
        "coordinates": [
          143.33065754545729,
          42.43520543131671
        ]
      }
    },
    {
      "type": "Feature",
      "properties": {
        "norad_id": 66346,
        "name": "STARLINK-35482",
        "group": "last-30-days",
        "lat": 42.15775822367492,
        "lon": 145.85581815853553,
        "alt_km": 409.2592924375749,
        "timestamp": "2025-12-02T21:34:00.040810+00:00",
        "meta_object_name": "STARLINK-35482",
        "meta_object_id": "2025-253AD",
        "meta_epoch": "2025-12-02T11:51:42.469920",
        "meta_mean_motion": 15.5059808,
        "meta_eccentricity": 0.000183,
        "meta_inclination": 43.0006,
        "meta_ra_of_asc_node": 44.534,
        "meta_arg_of_pericenter": 276.321,
        "meta_mean_anomaly": 83.7442,
        "meta_ephemeris_type": 0,
        "meta_classification_type": "U",
        "meta_norad_cat_id": 66346,
        "meta_element_set_no": 999,
        "meta_rev_at_epoch": 534,
        "meta_bstar": 0.0018279,
        "meta_mean_motion_dot": 0.00108462,
        "meta_mean_motion_ddot": 0,
        "tle_line1": "1 66346U 25253AD  25336.49424155  .00108462  00000+0  18279-2 0  9994",
        "tle_line2": "2 66346  43.0006  44.5340 0001830 276.3210  83.7442 15.50598080  5344"
      },
      "geometry": {
        "type": "Point",
        "coordinates": [
          145.85581815853553,
          42.15775822367492
        ]
      }
    },
    {
      "type": "Feature",
      "properties": {
        "norad_id": 66347,
        "name": "STARLINK-35438",
        "group": "last-30-days",
        "lat": 41.38392259111842,
        "lon": 151.15072652795325,
        "alt_km": 411.0810029835584,
        "timestamp": "2025-12-02T21:34:00.040821+00:00",
        "meta_object_name": "STARLINK-35438",
        "meta_object_id": "2025-253AE",
        "meta_epoch": "2025-12-02T11:50:43.166688",
        "meta_mean_motion": 15.50748022,
        "meta_eccentricity": 0.0005169,
        "meta_inclination": 43.0001,
        "meta_ra_of_asc_node": 44.5284,
        "meta_arg_of_pericenter": 271.7306,
        "meta_mean_anomaly": 88.2962,
        "meta_ephemeris_type": 0,
        "meta_classification_type": "U",
        "meta_norad_cat_id": 66347,
        "meta_element_set_no": 999,
        "meta_rev_at_epoch": 534,
        "meta_bstar": 0.002323,
        "meta_mean_motion_dot": 0.00139273,
        "meta_mean_motion_ddot": 0,
        "tle_line1": "1 66347U 25253AE  25336.49355517  .00139273  00000+0  23230-2 0  9997",
        "tle_line2": "2 66347  43.0001  44.5284 0005169 271.7306  88.2962 15.50748022  5341"
      },
      "geometry": {
        "type": "Point",
        "coordinates": [
          151.15072652795325,
          41.38392259111842
        ]
      }
    }
  ]
}